{"type": "FeatureCollection", "features": [ {"type": "Feature", "properties": {"norad_id": 39634, "name": "SENTINEL-1A", "group": "resource", "lat": 40.67297844345002, "lon": -3.7850835478925586, "alt_km": 691.9307737714325, "timestamp": "2025-12-24T05:51:19.262666+00:00", "meta": {"OBJECT_NAME": "SENTINEL-1A", "OBJECT_ID": "2014-016A", "EPOCH": "2025-12-23T23:05:03.948000", "MEAN_MOTION": 14.59201719, "ECCENTRICITY": 0.00012312, "INCLINATION": 98.1797, "RA_OF_ASC_NODE": 3.0369, "ARG_OF_PERICENTER": 87.5963, "MEAN_ANOMALY": 272.5377, "EPHEMERIS_TYPE": 0, "CLASSIFICATION_TYPE": "U", "NORAD_CAT_ID": 39634, "ELEMENT_SET_NO": 999, "REV_AT_EPOCH": 62446, "BSTAR": -2.3635479e-05, "MEAN_MOTION_DOT": -1.57e-06, "MEAN_MOTION_DDOT": 0}, "tle": {"line1": "1 39634U 14016A   25357.96185125 -.00000157  00000+0 -23635-4 0  9993", "line2": "2 39634  98.1797   3.0369 0001231  87.5963 272.5377 14.59201719624468"}}, "geometry": {"type": "Point", "coordinates": [-3.7850835478925586, 40.67297844345002]}}, {"type": "Feature", "properties": {"norad_id": 39731, "name": "KAZEOSAT 1", "group": "resource", "lat": 26.84271256310286, "lon": 65.63427620918924, "alt_km": 750.3214646932129, "timestamp": "2025-12-24T05:51:19.262676+00:00", "meta": {"OBJECT_NAME": "KAZEOSAT 1", "OBJECT_ID": "2014-024A", "EPOCH": "2025-12-23T23:04:07.884768", "MEAN_MOTION": 14.42068133, "ECCENTRICITY": 0.00012221, "INCLINATION": 98.3421, "RA_OF_ASC_NODE": 69.6164, "ARG_OF_PERICENTER": 97.885, "MEAN_ANOMALY": 262.2479, "EPHEMERIS_TYPE": 0, "CLASSIFICATION_TYPE": "U", "NORAD_CAT_ID": 39731, "ELEMENT_SET_NO": 999, "REV_AT_EPOCH": 61330, "BSTAR": 5.7069319e-05, "MEAN_MOTION_DOT": 1.45e-06, "MEAN_MOTION_DDOT": 0}, "tle": {"line1": "1 39731U 14024A   25357.96120237  .00000145  00000+0  57069-4 0  9996", "line2": "2 39731  98.3421  69.6164 0001222  97.8850 262.2479 14.42068133613305"}}, "geometry": {"type": "Point", "coordinates": [65.63427620918924, 26.84271256310286]}}, {"type": "Feature", "properties": {"norad_id": 39766, "name": "ALOS-2", "group": "resource", "lat": 17.59743447028364, "lon": 90.39505234615433, "alt_km": 631.2650322610907, "timestamp": "2025-12-24T05:51:19.262686+00:00", "meta": {"OBJECT_NAME": "ALOS-2", "OBJECT_ID": "2014-029A", "EPOCH": "2025-12-23T21:39:33.546240", "MEAN_MOTION": 14.79470935, "ECCENTRICITY": 0.0001368, "INCLINATION": 97.9228, "RA_OF_ASC_NODE": 92.59, "ARG_OF_PERICENTER": 97.1677, "MEAN_ANOMALY": 262.969, "EPHEMERIS_TYPE": 0, "CLASSIFICATION_TYPE": "U", "NORAD_CAT_ID": 39766, "ELEMENT_SET_NO": 999, "REV_AT_EPOCH": 62566, "BSTAR": 0.00028990356, "MEAN_MOTION_DOT": 2.114e-05, "MEAN_MOTION_DDOT": 0}, "tle": {"line1": "1 39766U 14029A   25357.90247160  .00002114  00000+0  28990-3 0  9996", "line2": "2 39766  97.9228  92.5900 0001368  97.1677 262.9690 14.79470935625668"}}, "geometry": {"type": "Point", "coordinates": [90.39505234615433, 17.59743447028364]}}, {"type": "Feature", "properties": {"norad_id": 40010, "name": "KAZEOSAT 2", "group": "resource", "lat": 15.988951517196552, "lon": 24.14219462692611, "alt_km": 607.7133967746295, "timestamp": "2025-12-24T05:51:19.262696+00:00", "meta": {"OBJECT_NAME": "KAZEOSAT 2", "OBJECT_ID": "2014-033A", "EPOCH": "2025-12-23T22:39:09.544608", "MEAN_MOTION": 14.85188993, "ECCENTRICITY": 0.00086136, "INCLINATION": 97.5495, "RA_OF_ASC_NODE": 201.6799, "ARG_OF_PERICENTER": 167.5345, "MEAN_ANOMALY": 192.6086, "EPHEMERIS_TYPE": 0, "CLASSIFICATION_TYPE": "U", "NORAD_CAT_ID": 40010, "ELEMENT_SET_NO": 999, "REV_AT_EPOCH": 62294, "BSTAR": 0.00020023562, "MEAN_MOTION_DOT": 1.666e-05, "MEAN_MOTION_DDOT": 0}, "tle": {"line1": "1 40010U 14033A   25357.94386047  .00001666  00000+0  20024-3 0  9998", "line2": "2 40010  97.5495 201.6799 0008613 167.5345 192.6086 14.85188993622940"}}, "geometry": {"type": "Point", "coordinates": [24.14219462692611, 15.988951517196552]}}, {"type": "Feature", "properties": {"norad_id": 40011, "name": "HODOYOSHI-4", "group": "resource", "lat": -12.386536721740267, "lon": -171.77221356862842, "alt_km": 626.8557366249534, "timestamp": "2025-12-24T05:51:19.262706+00:00", "meta": {"OBJECT_NAME": "HODOYOSHI-4", "OBJECT_ID": "2014-033B", "EPOCH": "2025-12-23T23:27:14.241888", "MEAN_MOTION": 14.87521658, "ECCENTRICITY": 0.00239891, "INCLINATION": 97.5409, "RA_OF_ASC_NODE": 186.3072, "ARG_OF_PERICENTER": 162.8317, "MEAN_ANOMALY": 197.3717, "EPHEMERIS_TYPE": 0, "CLASSIFICATION_TYPE": "U", "NORAD_CAT_ID": 40011, "ELEMENT_SET_NO": 999, "REV_AT_EPOCH": 62275, "BSTAR": 0.00020995774, "MEAN_MOTION_DOT": 1.862e-05, "MEAN_MOTION_DDOT": 0}, "tle": {"line1": "1 40011U 14033B   25357.97724817  .00001862  00000+0  20996-3 0  9999", "line2": "2 40011  97.5409 186.3072 0023989 162.8317 197.3717 14.87521658622752"}}, "geometry": {"type": "Point", "coordinates": [-171.77221356862842, -12.386536721740267]}}, {"type": "Feature", "properties": {"norad_id": 40013, "name": "DEIMOS-2", "group": "resource", "lat": 11.954224990364525, "lon": -127.95612023742879, "alt_km": 589.9263828813328, "timestamp": "2025-12-24T05:51:19.262716+00:00", "meta": {"OBJECT_NAME": "DEIMOS-2", "OBJECT_ID": "2014-033D", "EPOCH": "2025-12-23T21:45:32.685984", "MEAN_MOTION": 14.93018376, "ECCENTRICITY": 0.00014069, "INCLINATION": 97.6057, "RA_OF_ASC_NODE": 233.3389, "ARG_OF_PERICENTER": 105.4039, "MEAN_ANOMALY": 254.7337, "EPHEMERIS_TYPE": 0, "CLASSIFICATION_TYPE": "U", "NORAD_CAT_ID": 40013, "ELEMENT_SET_NO": 999, "REV_AT_EPOCH": 61156, "BSTAR": 0.00012174848, "MEAN_MOTION_DOT": 1.212e-05, "MEAN_MOTION_DDOT": 0}, "tle": {"line1": "1 40013U 14033D   25357.90662831  .00001212  00000+0  12175-3 0  9990", "line2": "2 40013  97.6057 233.3389 0001406 105.4039 254.7337 14.93018376611560"}}, "geometry": {"type": "Point", "coordinates": [-127.95612023742879, 11.954224990364525]}}, {"type": "Feature", "properties": {"norad_id": 40015, "name": "HODOYOSHI-3", "group": "resource", "lat": 17.560806148894045, "lon": -13.992486466879887, "alt_km": 598.9714659580823, "timestamp": "2025-12-24T05:51:19.262726+00:00", "meta": {"OBJECT_NAME": "HODOYOSHI-3", "OBJECT_ID": "2014-033F", "EPOCH": "2025-12-23T22:39:21.603456", "MEAN_MOTION": 14.84843414, "ECCENTRICITY": 0.0032444, "INCLINATION": 97.6206, "RA_OF_ASC_NODE": 163.2923, "ARG_OF_PERICENTER": 209.8678, "MEAN_ANOMALY": 150.0687, "EPHEMERIS_TYPE": 0, "CLASSIFICATION_TYPE": "U", "NORAD_CAT_ID": 40015, "ELEMENT_SET_NO": 999, "REV_AT_EPOCH": 62161, "BSTAR": 0.0001914071, "MEAN_MOTION_DOT": 1.589e-05, "MEAN_MOTION_DDOT": 0}, "tle": {"line1": "1 40015U 14033F   25357.94400004  .00001589  00000+0  19141-3 0  9995", "line2": "2 40015  97.6206 163.2923 0032444 209.8678 150.0687 14.84843414621619"}}, "geometry": {"type": "Point", "coordinates": [-13.992486466879887, 17.560806148894045]}}, {"type": "Feature", "properties": {"norad_id": 40053, "name": "SPOT 7", "group": "resource", "lat": -30.238211744463435, "lon": 64.80894238046882, "alt_km": 697.1393887991981, "timestamp": "2025-12-24T05:51:19.262735+00:00", "meta": {"OBJECT_NAME": "SPOT 7", "OBJECT_ID": "2014-034A", "EPOCH": "2025-12-23T23:25:08.889312", "MEAN_MOTION": 14.60747123, "ECCENTRICITY": 0.00015359, "INCLINATION": 98.089, "RA_OF_ASC_NODE": 59.7917, "ARG_OF_PERICENTER": 82.4881, "MEAN_ANOMALY": 277.6494, "EPHEMERIS_TYPE": 0, "CLASSIFICATION_TYPE": "U", "NORAD_CAT_ID": 40053, "ELEMENT_SET_NO": 999, "REV_AT_EPOCH": 61155, "BSTAR": 0.00012354602, "MEAN_MOTION_DOT": 5.57e-06, "MEAN_MOTION_DDOT": 0}, "tle": {"line1": "1 40053U 14034A   25357.97579733  .00000557  00000+0  12355-3 0  9991", "line2": "2 40053  98.0890  59.7917 0001535  82.4881 277.6494 14.60747123611553"}}, "geometry": {"type": "Point", "coordinates": [64.80894238046882, -30.238211744463435]}}, {"type": "Feature", "properties": {"norad_id": 40072, "name": "SKYSAT-B", "group": "resource", "lat": -72.72836984079329, "lon": -29.205459690127594, "alt_km": 618.0898367577893, "timestamp": "2025-12-24T05:51:19.262746+00:00", "meta": {"OBJECT_NAME": "SKYSAT-B", "OBJECT_ID": "2014-037D", "EPOCH": "2025-12-23T09:12:08.448768", "MEAN_MOTION": 14.8736338, "ECCENTRICITY": 0.00067806, "INCLINATION": 98.3626, "RA_OF_ASC_NODE": 301.6522, "ARG_OF_PERICENTER": 120.3207, "MEAN_ANOMALY": 239.8679, "EPHEMERIS_TYPE": 0, "CLASSIFICATION_TYPE": "U", "NORAD_CAT_ID": 40072, "ELEMENT_SET_NO": 999, "REV_AT_EPOCH": 61982, "BSTAR": 0.00018052931, "MEAN_MOTION_DOT": 1.571e-05, "MEAN_MOTION_DDOT": 0}, "tle": {"line1": "1 40072U 14037D   25357.38343112  .00001571  00000+0  18053-3 0  9998", "line2": "2 40072  98.3626 301.6522 0006780 120.3207 239.8679 14.87363380619827"}}, "geometry": {"type": "Point", "coordinates": [-29.205459690127594, -72.72836984079329]}}, {"type": "Feature", "properties": {"norad_id": 40115, "name": "WORLDVIEW-3 (WV-3)", "group": "resource", "lat": 77.55121010569106, "lon": 31.54680731374214, "alt_km": 606.434892456653, "timestamp": "2025-12-24T05:51:19.262756+00:00", "meta": {"OBJECT_NAME": "WORLDVIEW-3 (WV-3)", "OBJECT_ID": "2014-048A", "EPOCH": "2025-12-23T21:24:26.394624", "MEAN_MOTION": 14.84672352, "ECCENTRICITY": 0.00019791, "INCLINATION": 97.8765, "RA_OF_ASC_NODE": 70.0356, "ARG_OF_PERICENTER": 130.8483, "MEAN_ANOMALY": 229.2904, "EPHEMERIS_TYPE": 0, "CLASSIFICATION_TYPE": "U", "NORAD_CAT_ID": 40115, "ELEMENT_SET_NO": 999, "REV_AT_EPOCH": 61589, "BSTAR": 0.00012733018, "MEAN_MOTION_DOT": 1.024e-05, "MEAN_MOTION_DDOT": 0}, "tle": {"line1": "1 40115U 14048A   25357.89197216  .00001024  00000+0  12733-3 0  9998", "line2": "2 40115  97.8765  70.0356 0001979 130.8483 229.2904 14.84672352615898"}}, "geometry": {"type": "Point", "coordinates": [31.54680731374214, 77.55121010569106]}}]}